[{"OBJECT_NAME":"ONEWEB-0012","OBJECT_ID":"2019-010A","EPOCH":"2026-06-26T16:14:35.011104","MEAN_MOTION":13.16595164,"ECCENTRICITY":0.0001821,"INCLINATION":87.9089,"RA_OF_ASC_NODE":226.9009,"ARG_OF_PERICENTER":86.3702,"MEAN_ANOMALY":273.7637,"EPHEMERIS_TYPE":0,"CLASSIFICATION_TYPE":"U","NORAD_CAT_ID":44057,"ELEMENT_SET_NO":999,"REV_AT_EPOCH":35281,"BSTAR":-6.176e-5,"MEAN_MOTION_DOT":-1.1e-7,"MEAN_MOTION_DDOT":0},{"OBJECT_NAME":"ONEWEB-0010","OBJECT_ID":"2019-010B","EPOCH":"2026-06-26T16:51:03.662208","MEAN_MOTION":13.1659546,"ECCENTRICITY":0.0002025,"INCLINATION":87.9089,"RA_OF_ASC_NODE":226.8914,"ARG_OF_PERICENTER":105.781,"MEAN_ANOMALY":254.3544,"EPHEMERIS_TYPE":0,"CLASSIFICATION_TYPE":"U","NORAD_CAT_ID":44058,"ELEMENT_SET_NO":999,"REV_AT_EPOCH":35286,"BSTAR":-7.9351e-6,"MEAN_MOTION_DOT":1.0e-7,"MEAN_MOTION_DDOT":0},{"OBJECT_NAME":"ONEWEB-0008","OBJECT_ID":"2019-010C","EPOCH":"2026-06-26T13:48:39.116736","MEAN_MOTION":13.16596214,"ECCENTRICITY":0.0002318,"INCLINATION":87.9087,"RA_OF_ASC_NODE":226.9121,"ARG_OF_PERICENTER":93.8647,"MEAN_ANOMALY":266.2749,"EPHEMERIS_TYPE":0,"CLASSIFICATION_TYPE":"U","NORAD_CAT_ID":44059,"ELEMENT_SET_NO":999,"REV_AT_EPOCH":35296,"BSTAR":0.00031002,"MEAN_MOTION_DOT":1.31e-6,"MEAN_MOTION_DDOT":0},{"OBJECT_NAME":"ONEWEB-0007","OBJECT_ID":"2019-010D","EPOCH":"2026-06-26T16:39:29.835648","MEAN_MOTION":13.15548825,"ECCENTRICITY":0.0001726,"INCLINATION":87.9001,"RA_OF_ASC_NODE":257.3273,"ARG_OF_PERICENTER":103.2525,"MEAN_ANOMALY":256.8798,"EPHEMERIS_TYPE":0,"CLASSIFICATION_TYPE":"U","NORAD_CAT_ID":44060,"ELEMENT_SET_NO":999,"REV_AT_EPOCH":35262,"BSTAR":-8.3786e-5,"MEAN_MOTION_DOT":-1.9e-7,"MEAN_MOTION_DDOT":0},{"OBJECT_NAME":"ONEWEB-0006","OBJECT_ID":"2019-010E","EPOCH":"2026-06-26T16:45:12.352032","MEAN_MOTION":13.15537363,"ECCENTRICITY":0.0002084,"INCLINATION":87.9012,"RA_OF_ASC_NODE":257.2915,"ARG_OF_PERICENTER":103.891,"MEAN_ANOMALY":256.2452,"EPHEMERIS_TYPE":0,"CLASSIFICATION_TYPE":"U","NORAD_CAT_ID":44061,"ELEMENT_SET_NO":999,"REV_AT_EPOCH":35267,"BSTAR":-0.0034493,"MEAN_MOTION_DOT":-1.285e-5,"MEAN_MOTION_DDOT":0},{"OBJECT_NAME":"ONEWEB-0011","OBJECT_ID":"2019-010F","EPOCH":"2026-06-26T15:59:33.714816","MEAN_MOTION":13.15548154,"ECCENTRICITY":0.0002171,"INCLINATION":87.9008,"RA_OF_ASC_NODE":257.3077,"ARG_OF_PERICENTER":102.8029,"MEAN_ANOMALY":257.3344,"EPHEMERIS_TYPE":0,"CLASSIFICATION_TYPE":"U","NORAD_CAT_ID":44062,"ELEMENT_SET_NO":999,"REV_AT_EPOCH":35266,"BSTAR":0.00033053,"MEAN_MOTION_DOT":1.37e-6,"MEAN_MOTION_DDOT":0},{"OBJECT_NAME":"ONEWEB-0013","OBJECT_ID":"2020-008A","EPOCH":"2026-06-26T09:58:42.987648","MEAN_MOTION":13.09454886,"ECCENTRICITY":0.0001856,"INCLINATION":87.8507,"RA_OF_ASC_NODE":50.9628,"ARG_OF_PERICENTER":51.566,"MEAN_ANOMALY":308.5633,"EPHEMERIS_TYPE":0,"CLASSIFICATION_TYPE":"U","NORAD_CAT_ID":45131,"ELEMENT_SET_NO":999,"REV_AT_EPOCH":30727,"BSTAR":0.001533,"MEAN_MOTION_DOT":5.41e-6,"MEAN_MOTION_DDOT":0},{"OBJECT_NAME":"ONEWEB-0017","OBJECT_ID":"2020-008B","EPOCH":"2026-06-26T07:34:09.120576","MEAN_MOTION":13.10363184,"ECCENTRICITY":0.0001791,"INCLINATION":87.8822,"RA_OF_ASC_NODE":34.4503,"ARG_OF_PERICENTER":92.0444,"MEAN_ANOMALY":268.0888,"EPHEMERIS_TYPE":0,"CLASSIFICATION_TYPE":"U","NORAD_CAT_ID":45132,"ELEMENT_SET_NO":999,"REV_AT_EPOCH":30914,"BSTAR":-0.0013144,"MEAN_MOTION_DOT":-4.46e-6,"MEAN_MOTION_DDOT":0},{"OBJECT_NAME":"ONEWEB-0020","OBJECT_ID":"2020-008C","EPOCH":"2026-06-26T08:40:06.197376","MEAN_MOTION":13.10386303,"ECCENTRICITY":0.0001828,"INCLINATION":87.8828,"RA_OF_ASC_NODE":34.4397,"ARG_OF_PERICENTER":86.2032,"MEAN_ANOMALY":273.9305,"EPHEMERIS_TYPE":0,"CLASSIFICATION_TYPE":"U","NORAD_CAT_ID":45133,"ELEMENT_SET_NO":999,"REV_AT_EPOCH":30954,"BSTAR":-0.0059705,"MEAN_MOTION_DOT":-2.071e-5,"MEAN_MOTION_DDOT":0},{"OBJECT_NAME":"ONEWEB-0021","OBJECT_ID":"2020-008D","EPOCH":"2026-06-26T14:31:56.046720","MEAN_MOTION":13.10407222,"ECCENTRICITY":0.0001583,"INCLINATION":87.8818,"RA_OF_ASC_NODE":34.4063,"ARG_OF_PERICENTER":85.281,"MEAN_ANOMALY":274.8498,"EPHEMERIS_TYPE":0,"CLASSIFICATION_TYPE":"U","NORAD_CAT_ID":45134,"ELEMENT_SET_NO":999,"REV_AT_EPOCH":30988,"BSTAR":-0.020675,"MEAN_MOTION_DOT":-7.202e-5,"MEAN_MOTION_DDOT":0},{"OBJECT_NAME":"ONEWEB-0023","OBJECT_ID":"2020-008F","EPOCH":"2026-06-26T12:57:54.079200","MEAN_MOTION":13.10373073,"ECCENTRICITY":0.0001954,"INCLINATION":87.8827,"RA_OF_ASC_NODE":34.4022,"ARG_OF_PERICENTER":80.5249,"MEAN_ANOMALY":279.61,"EPHEMERIS_TYPE":0,"CLASSIFICATION_TYPE":"U","NORAD_CAT_ID":45136,"ELEMENT_SET_NO":999,"REV_AT_EPOCH":30930,"BSTAR":-0.00085864,"MEAN_MOTION_DOT":-2.87e-6,"MEAN_MOTION_DDOT":0},{"OBJECT_NAME":"ONEWEB-0024","OBJECT_ID":"2020-008G","EPOCH":"2026-06-26T14:07:42.118752","MEAN_MOTION":13.10381664,"ECCENTRICITY":0.0001738,"INCLINATION":87.8836,"RA_OF_ASC_NODE":34.3853,"ARG_OF_PERICENTER":88.3866,"MEAN_ANOMALY":271.7461,"EPHEMERIS_TYPE":0,"CLASSIFICATION_TYPE":"U","NORAD_CAT_ID":45137,"ELEMENT_SET_NO":999,"REV_AT_EPOCH":30947,"BSTAR":-0.0035523,"MEAN_MOTION_DOT":-1.227e-5,"MEAN_MOTION_DDOT":0},{"OBJECT_NAME":"ONEWEB-0025","OBJECT_ID":"2020-008H","EPOCH":"2026-06-26T14:07:22.899072","MEAN_MOTION":13.10213528,"ECCENTRICITY":0.0002597,"INCLINATION":87.8841,"RA_OF_ASC_NODE":34.3753,"ARG_OF_PERICENTER":110.3181,"MEAN_ANOMALY":249.8226,"EPHEMERIS_TYPE":0,"CLASSIFICATION_TYPE":"U","NORAD_CAT_ID":45138,"ELEMENT_SET_NO":999,"REV_AT_EPOCH":30980,"BSTAR":0.095858,"MEAN_MOTION_DOT":0.00033518,"MEAN_MOTION_DDOT":0},{"OBJECT_NAME":"ONEWEB-0026","OBJECT_ID":"2020-008J","EPOCH":"2026-06-26T13:02:01.381056","MEAN_MOTION":13.11416567,"ECCENTRICITY":0.0001897,"INCLINATION":87.888,"RA_OF_ASC_NODE":19.2053,"ARG_OF_PERICENTER":91.6165,"MEAN_ANOMALY":268.518,"EPHEMERIS_TYPE":0,"CLASSIFICATION_TYPE":"U","NORAD_CAT_ID":45139,"ELEMENT_SET_NO":999,"REV_AT_EPOCH":31233,"BSTAR":0.0012487,"MEAN_MOTION_DOT":4.55e-6,"MEAN_MOTION_DDOT":0},{"OBJECT_NAME":"ONEWEB-0028","OBJECT_ID":"2020-008K","EPOCH":"2026-06-26T06:56:59.890848","MEAN_MOTION":13.11416709,"ECCENTRICITY":0.0001765,"INCLINATION":87.8877,"RA_OF_ASC_NODE":19.264,"ARG_OF_PERICENTER":68.912,"MEAN_ANOMALY":291.2196,"EPHEMERIS_TYPE":0,"CLASSIFICATION_TYPE":"U","NORAD_CAT_ID":45140,"ELEMENT_SET_NO":999,"REV_AT_EPOCH":30981,"BSTAR":-0.0012773,"MEAN_MOTION_DOT":-4.4e-6,"MEAN_MOTION_DDOT":0},{"OBJECT_NAME":"ONEWEB-0032","OBJECT_ID":"2020-008L","EPOCH":"2026-06-26T07:36:45.992736","MEAN_MOTION":13.10364619,"ECCENTRICITY":0.0001946,"INCLINATION":87.8823,"RA_OF_ASC_NODE":34.4519,"ARG_OF_PERICENTER":69.9204,"MEAN_ANOMALY":290.2133,"EPHEMERIS_TYPE":0,"CLASSIFICATION_TYPE":"U","NORAD_CAT_ID":45141,"ELEMENT_SET_NO":999,"REV_AT_EPOCH":30949,"BSTAR":0.00079301,"MEAN_MOTION_DOT":2.89e-6,"MEAN_MOTION_DDOT":0},{"OBJECT_NAME":"ONEWEB-0033","OBJECT_ID":"2020-008M","EPOCH":"2026-06-26T08:49:52.347936","MEAN_MOTION":13.10373832,"ECCENTRICITY":0.0001867,"INCLINATION":87.8821,"RA_OF_ASC_NODE":34.448,"ARG_OF_PERICENTER":101.3596,"MEAN_ANOMALY":258.7741,"EPHEMERIS_TYPE":0,"CLASSIFICATION_TYPE":"U","NORAD_CAT_ID":45142,"ELEMENT_SET_NO":999,"REV_AT_EPOCH":30941,"BSTAR":0.0012013,"MEAN_MOTION_DOT":4.32e-6,"MEAN_MOTION_DDOT":0}]
